[{"OBJECT_NAME":"PROTOMETHEE","OBJECT_ID":"2023-174BT","EPOCH":"2026-03-09T23:28:08.029344","MEAN_MOTION":15.30202663,"ECCENTRICITY":0.00088339,"INCLINATION":97.3826,"RA_OF_ASC_NODE":147.9552,"ARG_OF_PERICENTER":148.5993,"MEAN_ANOMALY":211.5776,"EPHEMERIS_TYPE":0,"CLASSIFICATION_TYPE":"U","NORAD_CAT_ID":58321,"ELEMENT_SET_NO":999,"REV_AT_EPOCH":12979,"BSTAR":0.00015715731,"MEAN_MOTION_DOT":4.52e-5,"MEAN_MOTION_DDOT":0},{"OBJECT_NAME":"STARLINK-31736","OBJECT_ID":"2024-074P","EPOCH":"2026-03-09T02:16:19.374816","MEAN_MOTION":15.27578592,"ECCENTRICITY":0.00014724,"INCLINATION":43.0078,"RA_OF_ASC_NODE":339.9225,"ARG_OF_PERICENTER":268.2918,"MEAN_ANOMALY":91.7765,"EPHEMERIS_TYPE":0,"CLASSIFICATION_TYPE":"U","NORAD_CAT_ID":59547,"ELEMENT_SET_NO":999,"REV_AT_EPOCH":10600,"BSTAR":-0.00011845765,"MEAN_MOTION_DOT":-3.52e-5,"MEAN_MOTION_DDOT":0}]
